QIANFAN-1               
1 60379U 24140A   25358.09857545  .00000116  00000+0  16143-3 0  9997
2 60379  88.9771 298.1050 0017006 176.0508 184.0780 13.50979950 68889
QIANFAN-2               
1 60380U 24140B   25358.12753459  .00000130  00000+0  18236-3 0  9993
2 60380  88.9758 297.9399 0013242 146.1676 214.0323 13.50983705 68948
QIANFAN-3               
1 60381U 24140C   25358.13569578  .00000125  00000+0  17435-3 0  9996
2 60381  88.9750 298.0708 0013931 159.0745 201.0980 13.50984279 68854
QIANFAN-4               
1 60382U 24140D   25358.11090890  .00000099  00000+0  13492-3 0  9990
2 60382  88.9776 297.9738 0013375 148.8837 211.3109 13.50979869 68973
QIANFAN-5               
1 60383U 24140E   25358.08633941  .00000134  00000+0  18869-3 0  9990
2 60383  88.9750 298.1013 0014817 171.1626 188.9788 13.50981962 68836
QIANFAN-6               
1 60384U 24140F   25358.10692779  .00000116  00000+0  16115-3 0  9990
2 60384  88.9777 297.8484 0013303 154.7095 205.4710 13.50982284 69031
QIANFAN-7               
1 60385U 24140G   25358.09919307  .00000719  00000+0  28576-3 0  9991
2 60385  88.9792 292.3877 0015884  11.6462 348.5096 14.27664796 72018
QIANFAN-8               
1 60386U 24140H   25358.11520966  .00000102  00000+0  13891-3 0  9994
2 60386  88.9779 298.0852 0016671 158.6024 201.5828 13.50980087 68881
